H0,DIST_H0,H_DIST_MIN,PT_DIST_MIN,DIST_MIN,HF,N_PT,DIST_HF,RCS,CCSDS_OMM_VERS,COMMENT,CREATION_DATE,ORIGINATOR,OBJECT_NAME,OBJECT_ID,CENTER_NAME,REF_FRAME,TIME_SYSTEM,MEAN_ELEMENT_THEORY,EPOCH,MEAN_MOTION,ECCENTRICITY,INCLINATION,RA_OF_ASC_NODE,ARG_OF_PERICENTER,MEAN_ANOMALY,EPHEMERIS_TYPE,CLASSIFICATION_TYPE,NORAD_CAT_ID,ELEMENT_SET_NO,REV_AT_EPOCH,BSTAR,MEAN_MOTION_DOT,MEAN_MOTION_DDOT,SEMIMAJOR_AXIS,PERIOD,APOAPSIS,PERIAPSIS,OBJECT_TYPE,RCS_SIZE,COUNTRY_CODE,LAUNCH_DATE,SITE,DECAY_DATE,FILE,GP_ID,TLE_LINE0,TLE_LINE1,TLE_LINE2
2022-08-06T11:12:32.000,1098310.6634540416,11:14:48.000,137,577531.217435357,11:17:05.000,273,1099137.3685287142,27.4086,2.0,GENERATED VIA SPACE-TRACK.ORG API,2022-08-06T18:07:45,18 SPCS,H-2A R/B,2016-012E,EARTH,TEME,UTC,SGP4,2022-08-06T11:58:49.245312,15.07057284,0.0017055,30.6247,255.5659,355.4409,4.6064,0,U,41341,999,35609,9.136e-05,1.514e-05,0.0,6923.335,95.55,557.008,533.392,ROCKET BODY,LARGE,JPN,2016-02-17,TNSTA,,3530579,209689560,0 H-2A R/B,1 41341U 16012E   22218.49918108  .00001514  00000-0  91360-4 0  9992,2 41341  30.6247 255.5659 0017055 355.4409   4.6064 15.07057284356094
2022-08-06T12:53:52.000,1094069.3672988147,12:56:03.000,132,489631.8222839049,12:58:15.000,263,1094291.0133354694,6.127999999999999,2.0,GENERATED VIA SPACE-TRACK.ORG API,2022-08-06T18:07:45,18 SPCS,PSLV R/B,2017-008DJ,EARTH,TEME,UTC,SGP4,2022-08-06T12:07:37.227072,15.32774384,0.0010618,97.2927,293.2567,198.3606,161.7255,0,U,42052,999,30530,0.0001162,3.605e-05,0.0,6845.676,93.947,474.81,460.272,ROCKET BODY,LARGE,IND,2017-02-15,SRI,,3530579,209689627,0 PSLV R/B,1 42052U 17008DJ  22218.50529198  .00003605  00000-0  11620-3 0  9990,2 42052  97.2927 293.2567 0010618 198.3606 161.7255 15.32774384305306
